{
    "links": {
        "self": "http://www.neowsapp.com/rest/v1/neo/3683392?api_key=iIulBulltgU6a56xZRHN4H3l9WmuAYTsLGpBGhQ2"
    },
    "id": "3683392",
    "neo_reference_id": "3683392",
    "name": "(2014 QM266)",
    "designation": "2014 QM266",
    "nasa_jpl_url": "http://ssd.jpl.nasa.gov/sbdb.cgi?sstr=3683392",
    "absolute_magnitude_h": 24.3,
    "estimated_diameter": {
        "kilometers": {
            "estimated_diameter_min": 0.0366906138,
            "estimated_diameter_max": 0.0820427065
        },
        "meters": {
            "estimated_diameter_min": 36.6906137531,
            "estimated_diameter_max": 82.0427064882
        },
        "miles": {
            "estimated_diameter_min": 0.0227984834,
            "estimated_diameter_max": 0.0509789586
        },
        "feet": {
            "estimated_diameter_min": 120.3760332259,
            "estimated_diameter_max": 269.1689931548
        }
    },
    "is_potentially_hazardous_asteroid": false,
    "close_approach_data": [
        {
            "close_approach_date": "2014-09-01",
            "close_approach_date_full": "2014-Sep-01 09:42",
            "epoch_date_close_approach": 1409564520000,
            "relative_velocity": {
                "kilometers_per_second": "27.2686369119",
                "kilometers_per_hour": "98167.0928829696",
                "miles_per_hour": "60997.2139083096"
            },
            "miss_distance": {
                "astronomical": "0.0284737054",
                "lunar": "11.0762714006",
                "kilometers": "4259605.678847498",
                "miles": "2646796.2352635524"
            },
            "orbiting_body": "Earth"
        },
        {
            "close_approach_date": "2019-11-12",
            "close_approach_date_full": "2019-Nov-12 18:31",
            "epoch_date_close_approach": 1573583460000,
            "relative_velocity": {
                "kilometers_per_second": "7.2205073562",
                "kilometers_per_hour": "25993.8264822654",
                "miles_per_hour": "16151.5529050498"
            },
            "miss_distance": {
                "astronomical": "1.4730694597",
                "lunar": "573.0240198233",
                "kilometers": "220368053.533170839",
                "miles": "136930358.9203980182"
            },
            "orbiting_body": "Juptr"
        }
    ],
    "orbital_data": {
        "orbit_id": "4",
        "orbit_determination_date": "2017-04-06 08:39:11",
        "first_observation_date": "2014-08-22",
        "last_observation_date": "2014-08-27",
        "data_arc_in_days": 5,
        "observations_used": 13,
        "orbit_uncertainty": "8",
        "minimum_orbit_intersection": ".0180831",
        "jupiter_tisserand_invariant": "3.034",
        "epoch_osculation": "2456894.5",
        "eccentricity": ".8130249487204674",
        "semi_major_axis": "2.287414317231728",
        "inclination": "10.33339631665175",
        "ascending_node_longitude": "334.1919192058605",
        "orbital_period": "1263.617638576378",
        "perihelion_distance": ".4276894092619394",
        "perihelion_argument": "112.3596713517186",
        "aphelion_distance": "4.147139225201516",
        "perihelion_time": "2456946.618243258020",
        "mean_anomaly": "345.1517049144506",
        "mean_motion": ".2848963080363335",
        "equinox": "J2000",
        "orbit_class": {
            "orbit_class_type": "APO",
            "orbit_class_description": "Near-Earth asteroid orbits which cross the Earth’s orbit similar to that of 1862 Apollo",
            "orbit_class_range": "a (semi-major axis) > 1.0 AU; q (perihelion) < 1.017 AU"
        }
    },
    "is_sentry_object": false
}